NORAD_CAT_ID,OBJECT_NAME,OBJECT_TYPE,EPOCH,MEAN_MOTION,ECCENTRICITY,INCLINATION,RA_OF_ASC_NODE,ARG_OF_PERICENTER,MEAN_ANOMALY,BSTAR,MEAN_MOTION_DOT,MEAN_MOTION_DDOT,TLE_LINE0,TLE_LINE1,TLE_LINE2,SEMIMAJOR_AXIS,PERIOD,APOGEE,PERIGEE,DECAYED
49443.0,STARLINK-3136,PAYLOAD,2022-06-03 23:39:25,15.08856561,0.0002511,53.2198,260.4072,30.2323,329.8814,-0.00016456,-2.908e-05,0.0,0 STARLINK-3136,1 49443U 21104AM  22154.98571020 -.00002908  00000-0 -16456-3 0  9994,2 49443  53.2198 260.4072 0002511  30.2323 329.8814 15.08856561 32451,6917.83,95.437,541.432,537.9580000000002,0.0
49443.0,STARLINK-3136,PAYLOAD,2022-06-04 10:47:07,15.08831388,0.0002224,53.2198,258.3267,31.8575,328.2552,7.283e-05,8.71e-06,0.0,0 STARLINK-3136,1 49443U 21104AM  22155.44939782  .00000871  00000-0  72830-4 0  9993,2 49443  53.2198 258.3267 0002224  31.8575 328.2552 15.08831388 32520,6917.906999999997,95.438,541.31,538.2330000000002,0.0
49443.0,STARLINK-3136,PAYLOAD,2022-06-04 13:57:54,15.08824017,0.0002388,53.2192,257.7313,29.0105,331.102,8.2784e-06,-1.57e-06,0.0,0 STARLINK-3136,1 49443U 21104AM  22155.58188617 -.00000157  00000-0  82784-5 0  9999,2 49443  53.2192 257.7313 0002388  29.0105 331.1020 15.08824017 31475,6917.929,95.439,541.446,538.1419999999998,0.0
49443.0,STARLINK-3136,PAYLOAD,2022-06-05 22:00:00,15.08861285,0.0002351,53.2175,251.7415,29.4422,24.9906,-0.0019001,-0.0003042,0.0,0 STARLINK-3136,1 49443U 21104AM  22156.91667824 -.00030420  00000-0 -19001-2 0  9995,2 49443  53.2175 251.7415 0002351  29.4422  24.9906 15.08861285 32759,6917.815,95.436,541.307,538.054,0.0
49443.0,STARLINK-3136,PAYLOAD,2022-06-06 14:00:01,15.088556099999998,0.000244,53.2175,248.7498,30.2531,47.3979,-0.00066108,-0.00010799,0.0,0 STARLINK-3136,1 49443U 21104AM  22157.58334491 -.00010799  00000-0 -66108-3 0  9998,2 49443  53.2175 248.7498 0002440  30.2531  47.3979 15.08855610 32851,6917.833000000001,95.437,541.386,538.01,0.0
49443.0,STARLINK-3136,PAYLOAD,2022-06-06 20:00:01,15.08872942,0.0002409,53.217,247.6269,27.5891,328.7677,-0.0036596,-0.00058116,0.0,0 STARLINK-3136,1 49443U 21104AM  22157.83334491 -.00058116  00000-0 -36596-2 0  9998,2 49443  53.2170 247.6269 0002409  27.5891 328.7677 15.08872942  1307,6917.78,95.435,541.311,537.9780000000002,0.0
49443.0,STARLINK-3136,PAYLOAD,2022-06-07 05:33:18,15.08849993,0.0002452,53.2196,245.8382,33.1137,327.0008,0.00012007,1.624e-05,0.0,0 STARLINK-3136,1 49443U 21104AM  22158.23146803  .00001624  00000-0  12007-3 0  9993,2 49443  53.2196 245.8382 0002452  33.1137 327.0008 15.08849993 32949,6917.85,95.437,541.411,538.019,0.0
49443.0,STARLINK-3136,PAYLOAD,2022-06-07 11:54:52,15.08842753,0.0002415,53.2194,244.6488,32.9815,327.1327,2.4957e-05,1.09e-06,0.0,0 STARLINK-3136,1 49443U 21104AM  22158.49643572  .00000109  00000-0  24957-4 0  9991,2 49443  53.2194 244.6488 0002415  32.9815 327.1327 15.08842753 32986,6917.871999999999,95.437,541.408,538.066,0.0
49443.0,STARLINK-3136,PAYLOAD,2022-06-07 15:05:38,15.08843261,0.000243,53.2193,244.054,33.351,326.7635,2.7349e-05,1.47e-06,0.0,0 STARLINK-3136,1 49443U 21104AM  22158.62891492  .00000147  00000-0  27349-4 0  9992,2 49443  53.2193 244.0540 0002430  33.3510 326.7635 15.08843261 31938,6917.87,95.437,541.4159999999998,538.054,0.0
49443.0,STARLINK-3136,PAYLOAD,2022-06-08 11:45:38,15.08849614,0.0002366,53.2196,240.1881,34.2857,325.8288,-1.7669e-05,-5.700000000000001e-06,0.0,0 STARLINK-3136,1 49443U 21104AM  22159.49002770 -.00000570  00000-0 -17669-4 0  9997,2 49443  53.2196 240.1881 0002366  34.2857 325.8288 15.08849614 32065,6917.851,95.437,541.3530000000002,538.0790000000002,0.0
49443.0,STARLINK-3136,PAYLOAD,2022-06-09 05:14:53,15.08825762,0.0002302,53.2196,236.9167,37.2571,322.858,8.897399999999999e-05,1.128e-05,0.0,0 STARLINK-3136,1 49443U 21104AM  22160.21867568  .00001128  00000-0  88974-4 0  9998,2 49443  53.2196 236.9167 0002302  37.2571 322.8580 15.08825762 33242,6917.924,95.438,541.381,538.196,0.0
49443.0,STARLINK-3136,PAYLOAD,2022-06-09 11:36:26,15.0881754,0.0002207,53.2198,235.7274,35.7679,324.3461,0.00016896,2.4e-05,0.0,0 STARLINK-3136,1 49443U 21104AM  22160.48364064  .00002400  00000-0  16896-3 0  9997,2 49443  53.2198 235.7274 0002207  35.7679 324.3461 15.08817540 32212,6917.949000000001,95.439,541.341,538.2869999999998,0.0
49443.0,STARLINK-3136,PAYLOAD,2022-06-10 05:05:40,15.08835355,0.0002339,53.2194,232.457,33.0723,327.0415,2.2219e-05,6.5e-07,0.0,0 STARLINK-3136,1 49443U 21104AM  22161.21227242  .00000065  00000-0  22219-4 0  9997,2 49443  53.2194 232.4570 0002339  33.0723 327.0415 15.08835355 33391,6917.895,95.438,541.378,538.141,0.0
49443.0,STARLINK-3136,PAYLOAD,2022-06-10 11:27:12,15.0883956,0.0002426,53.2188,231.2686,29.2675,330.8453,3.1878e-05,2.19e-06,0.0,0 STARLINK-3136,1 49443U 21104AM  22161.47722993  .00000219  00000-0  31878-4 0  9990,2 49443  53.2188 231.2686 0002426  29.2675 330.8453 15.08839560 32361,6917.882,95.438,541.425,538.068,0.0
49443.0,STARLINK-3136,PAYLOAD,2022-06-11 11:18:00,15.08829007,0.0002472,53.2191,226.8084,29.8926,330.2207,4.1754e-05,3.76e-06,0.0,0 STARLINK-3136,1 49443U 21104AM  22162.47083836  .00000376  00000-0  41754-4 0  9995,2 49443  53.2191 226.8084 0002472  29.8926 330.2207 15.08829007 33584,6917.9140000000025,95.438,541.489,538.069,0.0
49443.0,STARLINK-3136,PAYLOAD,2022-06-11 20:50:19,15.08829373,0.0002522,53.2189,225.0241,28.7765,331.3366,-5.789e-08,-2.89e-06,0.0,0 STARLINK-3136,1 49443U 21104AM  22162.86828182 -.00000289  00000-0 -57890-7 0  9995,2 49443  53.2189 225.0241 0002522  28.7765 331.3366 15.08829373 32574,6917.913000000001,95.438,541.523,538.033,0.0
49443.0,STARLINK-3136,PAYLOAD,2022-06-12 11:08:47,15.08838938,0.0002427,53.2187,222.3483,27.234,332.8779,-6.1216e-06,-3.86e-06,0.0,0 STARLINK-3136,1 49443U 21104AM  22163.46443725 -.00000386  00000-0 -61216-5 0  9991,2 49443  53.2187 222.3483 0002427  27.2340 332.8779 15.08838938 33737,6917.884,95.438,541.428,538.07,0.0
49443.0,STARLINK-3136,PAYLOAD,2022-06-12 20:41:05,15.08844039,0.0002478,53.2188,220.5642,30.3347,329.7788,2.8679e-05,1.68e-06,0.0,0 STARLINK-3136,1 49443U 21104AM  22163.86187286  .00000168  00000-0  28679-4 0  9993,2 49443  53.2188 220.5642 0002478  30.3347 329.7788 15.08844039 32725,6917.868,95.437,541.447,538.019,0.0
49443.0,STARLINK-3136,PAYLOAD,2022-06-13 10:59:34,15.08829429,0.0002505,53.2188,217.8879,29.6052,330.5082,3.1904e-05,2.19e-06,0.0,0 STARLINK-3136,1 49443U 21104AM  22164.45804301  .00000219  00000-0  31904-4 0  9995,2 49443  53.2188 217.8879 0002505  29.6052 330.5082 15.08829429 33882,6917.913000000001,95.438,541.511,538.045,0.0
49443.0,STARLINK-3136,PAYLOAD,2022-06-13 20:31:53,15.08834229,0.0002566999999999,53.2189,216.1038,30.1147,329.9993,5.0031e-05,5.08e-06,0.0,0 STARLINK-3136,1 49443U 21104AM  22164.85548119  .00000508  00000-0  50031-4 0  9994,2 49443  53.2189 216.1038 0002567  30.1147 329.9993 15.08834229 32877,6917.898,95.438,541.539,537.987,0.0
49443.0,STARLINK-3136,PAYLOAD,2022-06-14 02:53:25,15.08840023,0.000252,53.2189,214.9144,29.8721,330.2415,4.8832e-05,4.89e-06,0.0,0 STARLINK-3136,1 49443U 21104AM  22165.12043847  .00000489  00000-0  48832-4 0  9997,2 49443  53.2189 214.9144 0002520  29.8721 330.2415 15.08840023 33989,6917.88,95.438,541.489,538.002,0.0
49443.0,STARLINK-3136,PAYLOAD,2022-06-14 10:50:21,15.0884437,0.0002542,53.2189,213.4277,30.1774,329.9364,6.8086e-05,7.95e-06,0.0,0 STARLINK-3136,1 49443U 21104AM  22165.45163479  .00000795  00000-0  68086-4 0  9990,2 49443  53.2189 213.4277 0002542  30.1774 329.9364 15.08844370 32961,6917.8669999999975,95.437,541.491,537.974,0.0
49443.0,STARLINK-3136,PAYLOAD,2022-06-15 10:41:08,15.08835541,0.0002578,53.2187,208.9673,29.5667,330.547,3.6282e-05,2.89e-06,0.0,0 STARLINK-3136,1 49443U 21104AM  22166.44523987  .00000289  00000-0  36282-4 0  9995,2 49443  53.2187 208.9673 0002578  29.5667 330.5470 15.08835541 34182,6917.894,95.438,541.5419999999998,537.976,0.0
49443.0,STARLINK-3136,PAYLOAD,2022-06-15 20:13:27,15.088401800000002,0.0002607,53.2188,207.183,30.3317,329.7826,3.7176e-05,3.03e-06,0.0,0 STARLINK-3136,1 49443U 21104AM  22166.84267742  .00000303  00000-0  37176-4 0  9993,2 49443  53.2188 207.1830 0002607  30.3317 329.7826 15.08840180 33172,6917.88,95.438,541.548,537.941,0.0
49443.0,STARLINK-3136,PAYLOAD,2022-06-19 10:04:18,15.08822872,0.0002712,53.2178,191.1268,30.8411,329.274,5.9659e-05,6.61e-06,0.0,0 STARLINK-3136,1 49443U 21104AM  22170.41966180  .00000661  00000-0  59659-4 0  9990,2 49443  53.2178 191.1268 0002712  30.8411 329.2740 15.08822872 33713,6917.933000000001,95.439,541.674,537.922,0.0
49443.0,STARLINK-3136,PAYLOAD,2022-06-19 18:01:14,15.0882434,0.0002739,53.2179,189.6401,31.5387,328.5769,6.5465e-05,7.53e-06,0.0,0 STARLINK-3136,1 49443U 21104AM  22170.75086422  .00000753  00000-0  65465-4 0  9993,2 49443  53.2179 189.6401 0002739  31.5387 328.5769 15.08824340 33764,6917.928000000001,95.439,541.688,537.898,0.0
49443.0,STARLINK-3136,PAYLOAD,2022-06-20 09:55:06,15.08828977,0.0002797,53.2185,186.6662,31.4011,328.7148,8.5563e-05,1.073e-05,0.0,0 STARLINK-3136,1 49443U 21104AM  22171.41326695  .00001073  00000-0  85563-4 0  9993,2 49443  53.2185 186.6662 0002797  31.4011 328.7148 15.08828977 33868,6917.9140000000025,95.438,541.714,537.844,0.0
49443.0,STARLINK-3136,PAYLOAD,2022-06-20 17:52:02,15.08831098,0.0002821,53.2185,185.1795,31.9462,328.1701,8.0958e-05,1e-05,0.0,0 STARLINK-3136,1 49443U 21104AM  22171.74446789  .00001000  00000-0  80958-4 0  9999,2 49443  53.2185 185.1795 0002821  31.9462 328.1701 15.08831098 34983,6917.908,95.438,541.724,537.821,0.0
49443.0,STARLINK-3136,PAYLOAD,2022-06-21 09:45:53,15.08837121,0.0002847,53.2183,182.2059,33.1643,326.9527,7.0336e-05,8.31e-06,0.0,0 STARLINK-3136,1 49443U 21104AM  22172.40686723  .00000831  00000-0  70336-4 0  9997,2 49443  53.2183 182.2059 0002847  33.1643 326.9527 15.08837121 34014,6917.889,95.438,541.724,537.785,0.0
